{"fetched_at":"2026-03-30T06:02:59Z","count":15439,"tles":[{"name":"2025-274C","line1":"1 66652U 25274C   26087.76000290  .00003470  00000+0  34179-3 0  9992","line2":"2 66652  97.7450  18.1412 0010074 266.6575  93.3491 14.92672068 18211","category":"Other"}]}