{
  "norad_id": 66652,
  "name": "2025-274C",
  "history": [
    {
      "epoch": "2026-03-28T18:14:24.250560Z",
      "apogee_km": 596.6276168174845,
      "perigee_km": 582.5880290639489,
      "latitude_deg": -7.694350866006257e-05,
      "longitude_deg": -81.63566250455973,
      "height_km": 593.0683899528889,
      "semi_major_axis_km": 6967.744822940716,
      "eccentricity": 0.00100747,
      "inclination_deg": 97.745,
      "raan_deg": 18.1412,
      "arg_perigee_deg": 266.6575,
      "mean_anomaly_deg": 93.3491,
      "mean_motion_rev_day": 14.92672068
    }
  ]
}